*******************************************************************************
Ephemeris / WWW_USER Mon Jul 15 19:27:25 2024 Pasadena, USA      / Horizons    
*******************************************************************************
Target body name: (2018 RA1)                      {source: JPL#6}
Center body name: Earth (399)                     {source: DE441}
Center-site name: Gemini South Obs., Cerro Pachon
*******************************************************************************
Start time      : A.D. 2018-Nov-14 23:25:00.0000 UT      
Stop  time      : A.D. 2018-Nov-15 09:29:00.0000 UT      
Step-size       : 1 minutes
*******************************************************************************
Target pole/equ : undefined
Target radii    : undefined                                                    
Center geodetic : 289.2634, -30.2406227, 2.71233  {E-lon(deg),Lat(deg),Alt(km)}
Center cylindric: 289.2634,5517.21435,-3194.81213 {E-lon(deg),Dxy(km),Dz(km)}
Center pole/equ : ITRF93                          {East-longitude positive}
Center radii    : 6378.137, 6378.137, 6356.752 km {Equator_a, b, pole_c}       
Target primary  : Sun
Vis. interferer : MOON (R_eq= 1737.400) km        {source: DE441}
Rel. light bend : Sun                             {source: DE441}
Rel. lght bnd GM: 1.3271E+11 km^3/s^2                                          
Small-body perts: Yes                             {source: SB441-N16}
Atmos refraction: NO (AIRLESS)
RA format       : HMS
Time format     : CAL 
Calendar mode   : Mixed Julian/Gregorian
RTS-only print  : NO       
EOP file        : eop.240715.p241008                                           
EOP coverage    : DATA-BASED 1962-JAN-20 TO 2024-JUL-15. PREDICTS-> 2024-OCT-07
Units conversion: 1 au= 149597870.700 km, c= 299792.458 km/s, 1 day= 86400.0 s 
Table cut-offs 1: Elevation (-90.0deg=NO ),Airmass (>38.000=NO), Daylight (YES)
Table cut-offs 2: Solar elongation (  0.0,180.0=NO ),Local Hour Angle( 0.0=NO )
Table cut-offs 3: RA/DEC angular rate (     0.0=NO )                           
*******************************************************************************
Initial IAU76/J2000 heliocentric ecliptic osculating elements (au, days, deg.):
  EPOCH=  2458369.5 ! 2018-Sep-08.00 (TDB)         Residual RMS= .21275        
   EC= .3232115344739424   QR= .7703453101153647   TP= 2458436.6763547547      
   OM= 166.2054176892707   W=  269.7217787981747   IN= 8.763099478405824       
  Equivalent ICRF heliocentric cartesian coordinates (au, au/d):
   X= 9.899686155013647E-01  Y=-2.468208982240139E-01  Z=-1.030323866474361E-01
  VX=-9.411283005844916E-04 VY= 1.717513364149167E-02 VZ= 4.613440841260365E-03
Asteroid physical parameters (km, seconds, rotational period in hours):        
   GM= n.a.                RAD= n.a.               ROTPER= n.a.                
   H= 26.4                 G= .150                 B-V= n.a.                   
                           ALBEDO= n.a.            STYP= n.a.                  
*******************************************************************************
 Date__(UT)__HR:MN     R.A._________(ICRF)_________DEC
******************************************************
$$SOE
 2018-Nov-15 05:34     11 54 49.551697 -15 29 28.10082
 2018-Nov-15 05:35     11 54 49.665227 -15 29 28.08730
 2018-Nov-15 05:36     11 54 49.778736 -15 29 28.07382
 2018-Nov-15 05:37     11 54 49.892227 -15 29 28.06038
 2018-Nov-15 05:38     11 54 50.005697 -15 29 28.04697
 2018-Nov-15 05:39     11 54 50.119148 -15 29 28.03361
 2018-Nov-15 05:40     11 54 50.232579 -15 29 28.02028
 2018-Nov-15 05:41     11 54 50.345991 -15 29 28.00699
 2018-Nov-15 05:42     11 54 50.459383 -15 29 27.99373
 2018-Nov-15 05:43     11 54 50.572755 -15 29 27.98051
 2018-Nov-15 05:44     11 54 50.686107 -15 29 27.96733
 2018-Nov-15 05:45     11 54 50.799439 -15 29 27.95418
 2018-Nov-15 05:46     11 54 50.912751 -15 29 27.94107
 2018-Nov-15 05:47     11 54 51.026044 -15 29 27.92800
 2018-Nov-15 05:48     11 54 51.139316 -15 29 27.91495
 2018-Nov-15 05:49     11 54 51.252569 -15 29 27.90195
 2018-Nov-15 05:50     11 54 51.365801 -15 29 27.88897
 2018-Nov-15 05:51     11 54 51.479014 -15 29 27.87603
 2018-Nov-15 05:52     11 54 51.592206 -15 29 27.86313
 2018-Nov-15 05:53     11 54 51.705379 -15 29 27.85025
 2018-Nov-15 05:54     11 54 51.818531 -15 29 27.83741
 2018-Nov-15 05:55     11 54 51.931663 -15 29 27.82460
 2018-Nov-15 05:56     11 54 52.044775 -15 29 27.81183
 2018-Nov-15 05:57     11 54 52.157866 -15 29 27.79908
 2018-Nov-15 05:58     11 54 52.270938 -15 29 27.78637
 2018-Nov-15 05:59     11 54 52.383989 -15 29 27.77368
 2018-Nov-15 06:00     11 54 52.497020 -15 29 27.76103
 2018-Nov-15 06:01     11 54 52.610030 -15 29 27.74841
 2018-Nov-15 06:02     11 54 52.723021 -15 29 27.73581
 2018-Nov-15 06:03     11 54 52.835991 -15 29 27.72325
 2018-Nov-15 06:04     11 54 52.948940 -15 29 27.71071
 2018-Nov-15 06:05     11 54 53.061869 -15 29 27.69821
 2018-Nov-15 06:06     11 54 53.174778 -15 29 27.68573
 2018-Nov-15 06:07     11 54 53.287666 -15 29 27.67328
 2018-Nov-15 06:08     11 54 53.400534 -15 29 27.66085
 2018-Nov-15 06:09     11 54 53.513381 -15 29 27.64846
 2018-Nov-15 06:10     11 54 53.626208 -15 29 27.63609
 2018-Nov-15 06:11     11 54 53.739014 -15 29 27.62374
 2018-Nov-15 06:12     11 54 53.851800 -15 29 27.61143
 2018-Nov-15 06:13     11 54 53.964565 -15 29 27.59913
 2018-Nov-15 06:14  r  11 54 54.077310 -15 29 27.58687
 2018-Nov-15 06:15     11 54 54.190034 -15 29 27.57463
 2018-Nov-15 06:16     11 54 54.302737 -15 29 27.56241
 2018-Nov-15 06:17     11 54 54.415420 -15 29 27.55022
 2018-Nov-15 06:18     11 54 54.528082 -15 29 27.53805
 2018-Nov-15 06:19     11 54 54.640723 -15 29 27.52590
 2018-Nov-15 06:20     11 54 54.753344 -15 29 27.51378
 2018-Nov-15 06:21     11 54 54.865943 -15 29 27.50168
 2018-Nov-15 06:22     11 54 54.978523 -15 29 27.48960
 2018-Nov-15 06:23     11 54 55.091081 -15 29 27.47755
 2018-Nov-15 06:24     11 54 55.203619 -15 29 27.46551
 2018-Nov-15 06:25     11 54 55.316135 -15 29 27.45350
 2018-Nov-15 06:26     11 54 55.428631 -15 29 27.44151
 2018-Nov-15 06:27     11 54 55.541107 -15 29 27.42954
 2018-Nov-15 06:28     11 54 55.653561 -15 29 27.41759
 2018-Nov-15 06:29     11 54 55.765995 -15 29 27.40566
 2018-Nov-15 06:30     11 54 55.878407 -15 29 27.39375
 2018-Nov-15 06:31     11 54 55.990799 -15 29 27.38185
 2018-Nov-15 06:32     11 54 56.103170 -15 29 27.36998
 2018-Nov-15 06:33     11 54 56.215520 -15 29 27.35812
 2018-Nov-15 06:34     11 54 56.327849 -15 29 27.34629
 2018-Nov-15 06:35     11 54 56.440158 -15 29 27.33447
 2018-Nov-15 06:36     11 54 56.552445 -15 29 27.32266
 2018-Nov-15 06:37     11 54 56.664711 -15 29 27.31088
 2018-Nov-15 06:38     11 54 56.776957 -15 29 27.29911
 2018-Nov-15 06:39     11 54 56.889181 -15 29 27.28735
 2018-Nov-15 06:40     11 54 57.001385 -15 29 27.27561
 2018-Nov-15 06:41     11 54 57.113567 -15 29 27.26389
 2018-Nov-15 06:42     11 54 57.225729 -15 29 27.25218
 2018-Nov-15 06:43     11 54 57.337870 -15 29 27.24049
 2018-Nov-15 06:44     11 54 57.449989 -15 29 27.22881
 2018-Nov-15 06:45     11 54 57.562088 -15 29 27.21715
 2018-Nov-15 06:46     11 54 57.674166 -15 29 27.20549
 2018-Nov-15 06:47     11 54 57.786222 -15 29 27.19386
 2018-Nov-15 06:48     11 54 57.898258 -15 29 27.18223
 2018-Nov-15 06:49     11 54 58.010272 -15 29 27.17062
 2018-Nov-15 06:50     11 54 58.122266 -15 29 27.15901
 2018-Nov-15 06:51     11 54 58.234239 -15 29 27.14742
 2018-Nov-15 06:52     11 54 58.346190 -15 29 27.13585
 2018-Nov-15 06:53     11 54 58.458120 -15 29 27.12428
 2018-Nov-15 06:54     11 54 58.570030 -15 29 27.11272
 2018-Nov-15 06:55     11 54 58.681918 -15 29 27.10117
 2018-Nov-15 06:56     11 54 58.793786 -15 29 27.08963
 2018-Nov-15 06:57     11 54 58.905632 -15 29 27.07811
 2018-Nov-15 06:58     11 54 59.017457 -15 29 27.06659
 2018-Nov-15 06:59     11 54 59.129261 -15 29 27.05508
 2018-Nov-15 07:00     11 54 59.241044 -15 29 27.04357
 2018-Nov-15 07:01     11 54 59.352807 -15 29 27.03208
 2018-Nov-15 07:02     11 54 59.464548 -15 29 27.02059
 2018-Nov-15 07:03     11 54 59.576268 -15 29 27.00911
 2018-Nov-15 07:04     11 54 59.687966 -15 29 26.99764
 2018-Nov-15 07:05     11 54 59.799644 -15 29 26.98617
 2018-Nov-15 07:06     11 54 59.911301 -15 29 26.97471
 2018-Nov-15 07:07     11 55 00.022937 -15 29 26.96326
 2018-Nov-15 07:08     11 55 00.134552 -15 29 26.95181
 2018-Nov-15 07:09     11 55 00.246146 -15 29 26.94036
 2018-Nov-15 07:10     11 55 00.357718 -15 29 26.92892
 2018-Nov-15 07:11     11 55 00.469270 -15 29 26.91748
 2018-Nov-15 07:12     11 55 00.580801 -15 29 26.90605
 2018-Nov-15 07:13     11 55 00.692310 -15 29 26.89462
 2018-Nov-15 07:14     11 55 00.803799 -15 29 26.88320
 2018-Nov-15 07:15     11 55 00.915266 -15 29 26.87177
 2018-Nov-15 07:16     11 55 01.026713 -15 29 26.86035
 2018-Nov-15 07:17     11 55 01.138139 -15 29 26.84893
 2018-Nov-15 07:18     11 55 01.249543 -15 29 26.83751
 2018-Nov-15 07:19     11 55 01.360927 -15 29 26.82610
 2018-Nov-15 07:20     11 55 01.472290 -15 29 26.81468
 2018-Nov-15 07:21     11 55 01.583631 -15 29 26.80327
 2018-Nov-15 07:22     11 55 01.694952 -15 29 26.79185
 2018-Nov-15 07:23     11 55 01.806252 -15 29 26.78043
 2018-Nov-15 07:24     11 55 01.917531 -15 29 26.76902
 2018-Nov-15 07:25     11 55 02.028789 -15 29 26.75760
 2018-Nov-15 07:26     11 55 02.140026 -15 29 26.74618
 2018-Nov-15 07:27     11 55 02.251242 -15 29 26.73476
 2018-Nov-15 07:28     11 55 02.362437 -15 29 26.72334
 2018-Nov-15 07:29     11 55 02.473611 -15 29 26.71191
 2018-Nov-15 07:30     11 55 02.584765 -15 29 26.70048
 2018-Nov-15 07:31     11 55 02.695897 -15 29 26.68905
 2018-Nov-15 07:32     11 55 02.807009 -15 29 26.67762
 2018-Nov-15 07:33     11 55 02.918100 -15 29 26.66618
 2018-Nov-15 07:34     11 55 03.029170 -15 29 26.65473
 2018-Nov-15 07:35     11 55 03.140219 -15 29 26.64328
 2018-Nov-15 07:36     11 55 03.251248 -15 29 26.63183
